{
    "links": {
        "self": "http://www.neowsapp.com/rest/v1/neo/3825036?api_key=iIulBulltgU6a56xZRHN4H3l9WmuAYTsLGpBGhQ2"
    },
    "id": "3825036",
    "neo_reference_id": "3825036",
    "name": "(2018 KW2)",
    "designation": "2018 KW2",
    "nasa_jpl_url": "http://ssd.jpl.nasa.gov/sbdb.cgi?sstr=3825036",
    "absolute_magnitude_h": 24.4,
    "estimated_diameter": {
        "kilometers": {
            "estimated_diameter_min": 0.0350392641,
            "estimated_diameter_max": 0.0783501764
        },
        "meters": {
            "estimated_diameter_min": 35.0392641108,
            "estimated_diameter_max": 78.3501764334
        },
        "miles": {
            "estimated_diameter_min": 0.0217723826,
            "estimated_diameter_max": 0.0486845275
        },
        "feet": {
            "estimated_diameter_min": 114.9582192654,
            "estimated_diameter_max": 257.0543928497
        }
    },
    "is_potentially_hazardous_asteroid": false,
    "close_approach_data": [
        {
            "close_approach_date": "1950-06-07",
            "close_approach_date_full": "1950-Jun-07 00:21",
            "epoch_date_close_approach": -617585940000,
            "relative_velocity": {
                "kilometers_per_second": "18.5995371208",
                "kilometers_per_hour": "66958.3336347302",
                "miles_per_hour": "41605.3045854245"
            },
            "miss_distance": {
                "astronomical": "0.2468522632",
                "lunar": "96.0255303848",
                "kilometers": "36928572.779399384",
                "miles": "22946351.0886801392"
            },
            "orbiting_body": "Earth"
        },
        {
            "close_approach_date": "2018-05-23",
            "close_approach_date_full": "2018-May-23 22:33",
            "epoch_date_close_approach": 1527114780000,
            "relative_velocity": {
                "kilometers_per_second": "12.399363106",
                "kilometers_per_hour": "44637.7071816108",
                "miles_per_hour": "27736.1353318181"
            },
            "miss_distance": {
                "astronomical": "0.0262300135",
                "lunar": "10.2034752515",
                "kilometers": "3923954.149671245",
                "miles": "2438232.046283381"
            },
            "orbiting_body": "Earth"
        }
    ],
    "orbital_data": {
        "orbit_id": "2",
        "orbit_determination_date": "2018-06-09 06:37:12",
        "first_observation_date": "2018-05-24",
        "last_observation_date": "2018-06-08",
        "data_arc_in_days": 15,
        "observations_used": 37,
        "orbit_uncertainty": "8",
        "minimum_orbit_intersection": ".0261269",
        "jupiter_tisserand_invariant": "4.471",
        "epoch_osculation": "2458264.5",
        "eccentricity": ".4151651672440964",
        "semi_major_axis": "1.474339173354204",
        "inclination": "13.52667252175432",
        "ascending_node_longitude": "67.19721133739444",
        "orbital_period": "653.874700757437",
        "perihelion_distance": ".8622449038740834",
        "perihelion_argument": "111.6987323127466",
        "aphelion_distance": "2.086433442834326",
        "perihelion_time": "2458213.495472528844",
        "mean_anomaly": "28.08126674475457",
        "mean_motion": ".5505641976711781",
        "equinox": "J2000",
        "orbit_class": {
            "orbit_class_type": "APO",
            "orbit_class_description": "Near-Earth asteroid orbits which cross the Earth’s orbit similar to that of 1862 Apollo",
            "orbit_class_range": "a (semi-major axis) > 1.0 AU; q (perihelion) < 1.017 AU"
        }
    },
    "is_sentry_object": false
}